[{"OBJECT_NAME":"OBJECT B","OBJECT_ID":"2025-012B","EPOCH":"2026-03-09T17:03:25.729344","MEAN_MOTION":15.20202755,"ECCENTRICITY":0.00076819,"INCLINATION":97.4305,"RA_OF_ASC_NODE":143.2195,"ARG_OF_PERICENTER":262.0484,"MEAN_ANOMALY":97.9879,"EPHEMERIS_TYPE":0,"CLASSIFICATION_TYPE":"U","NORAD_CAT_ID":62726,"ELEMENT_SET_NO":999,"REV_AT_EPOCH":6313,"BSTAR":0.00027599398,"MEAN_MOTION_DOT":5.916e-5,"MEAN_MOTION_DDOT":0},{"OBJECT_NAME":"OBJECT C","OBJECT_ID":"2026-027C","EPOCH":"2026-03-09T23:08:13.765344","MEAN_MOTION":15.17820753,"ECCENTRICITY":0.00106742,"INCLINATION":97.491,"RA_OF_ASC_NODE":197.9834,"ARG_OF_PERICENTER":198.1811,"MEAN_ANOMALY":161.9042,"EPHEMERIS_TYPE":0,"CLASSIFICATION_TYPE":"U","NORAD_CAT_ID":67748,"ELEMENT_SET_NO":999,"REV_AT_EPOCH":390,"BSTAR":0.00040034515,"MEAN_MOTION_DOT":8.044e-5,"MEAN_MOTION_DDOT":0}]
